{"type": "FeatureCollection", "features": [ {"type": "Feature", "properties": {"norad_id": 49810, "name": "GSAT0224 (GALILEO 28)", "group": "gnss", "lat": -41.150371396783065, "lon": -159.02859258261577, "alt_km": 23216.299513779664, "timestamp": "2025-12-13T05:42:57.800727+00:00", "meta": {"OBJECT_NAME": "GSAT0224 (GALILEO 28)", "OBJECT_ID": "2021-116B", "EPOCH": "2025-12-10T19:26:19.690368", "MEAN_MOTION": 1.70475895, "ECCENTRICITY": 0.000393, "INCLINATION": 57.2205, "RA_OF_ASC_NODE": 346.7629, "ARG_OF_PERICENTER": 256.2791, "MEAN_ANOMALY": 284.9883, "EPHEMERIS_TYPE": 0, "CLASSIFICATION_TYPE": "U", "NORAD_CAT_ID": 49810, "ELEMENT_SET_NO": 999, "REV_AT_EPOCH": 2499, "BSTAR": 0, "MEAN_MOTION_DOT": -8.7e-07, "MEAN_MOTION_DDOT": 0}, "tle": {"line1": "1 49810U 21116B   25344.80995012 -.00000087  00000+0  00000+0 0  9999", "line2": "2 49810  57.2205 346.7629 0003930 256.2791 284.9883  1.70475895 24991"}}, "geometry": {"type": "Point", "coordinates": [-159.02859258261577, -41.150371396783065]}}, {"type": "Feature", "properties": {"norad_id": 52984, "name": "COSMOS 2557 (706K)", "group": "gnss", "lat": -29.75968439118264, "lon": -54.875475129052, "alt_km": 19111.30812441607, "timestamp": "2025-12-13T05:42:57.800739+00:00", "meta": {"OBJECT_NAME": "COSMOS 2557 (706K)", "OBJECT_ID": "2022-075A", "EPOCH": "2025-12-07T04:21:00.419904", "MEAN_MOTION": 2.13101754, "ECCENTRICITY": 0.00137049, "INCLINATION": 64.4129, "RA_OF_ASC_NODE": 321.247, "ARG_OF_PERICENTER": 276.9, "MEAN_ANOMALY": 82.939, "EPHEMERIS_TYPE": 0, "CLASSIFICATION_TYPE": "U", "NORAD_CAT_ID": 52984, "ELEMENT_SET_NO": 999, "REV_AT_EPOCH": 2662, "BSTAR": 0, "MEAN_MOTION_DOT": -5.2e-07, "MEAN_MOTION_DDOT": 0}, "tle": {"line1": "1 52984U 22075A   25341.18125486 -.00000052  00000+0  00000+0 0  9990", "line2": "2 52984  64.4129 321.2470 0013704 276.9000  82.9390  2.13101754 26625"}}, "geometry": {"type": "Point", "coordinates": [-54.875475129052, -29.75968439118264]}}, {"type": "Feature", "properties": {"norad_id": 54031, "name": "COSMOS 2559 (707K)", "group": "gnss", "lat": 60.45185708159402, "lon": 83.30849590775514, "alt_km": 19121.81561664361, "timestamp": "2025-12-13T05:42:57.800754+00:00", "meta": {"OBJECT_NAME": "COSMOS 2559 (707K)", "OBJECT_ID": "2022-130A", "EPOCH": "2025-12-12T03:53:43.468224", "MEAN_MOTION": 2.13101343, "ECCENTRICITY": 0.00118146, "INCLINATION": 64.3826, "RA_OF_ASC_NODE": 321.1614, "ARG_OF_PERICENTER": 192.4425, "MEAN_ANOMALY": 167.5288, "EPHEMERIS_TYPE": 0, "CLASSIFICATION_TYPE": "U", "NORAD_CAT_ID": 54031, "ELEMENT_SET_NO": 999, "REV_AT_EPOCH": 2470, "BSTAR": 0, "MEAN_MOTION_DOT": -5.8e-07, "MEAN_MOTION_DDOT": 0}, "tle": {"line1": "1 54031U 22130A   25346.16230866 -.00000058  00000+0  00000+0 0  9995", "line2": "2 54031  64.3826 321.1614 0011814 192.4425 167.5288  2.13101343 24702"}}, "geometry": {"type": "Point", "coordinates": [83.30849590775514, 60.45185708159402]}}, {"type": "Feature", "properties": {"norad_id": 54377, "name": "COSMOS 2564 (761)", "group": "gnss", "lat": -39.68610018974477, "lon": 41.951172653045404, "alt_km": 19114.18059531703, "timestamp": "2025-12-13T05:42:57.800765+00:00", "meta": {"OBJECT_NAME": "COSMOS 2564 (761)", "OBJECT_ID": "2022-161A", "EPOCH": "2025-12-11T12:53:38.736096", "MEAN_MOTION": 2.13102051, "ECCENTRICITY": 0.00086147, "INCLINATION": 64.7381, "RA_OF_ASC_NODE": 198.9389, "ARG_OF_PERICENTER": 204.933, "MEAN_ANOMALY": 155.0953, "EPHEMERIS_TYPE": 0, "CLASSIFICATION_TYPE": "U", "NORAD_CAT_ID": 54377, "ELEMENT_SET_NO": 999, "REV_AT_EPOCH": 2363, "BSTAR": 0, "MEAN_MOTION_DOT": 5.6e-07, "MEAN_MOTION_DDOT": 0}, "tle": {"line1": "1 54377U 22161A   25345.53725389  .00000056  00000+0  00000+0 0  9998", "line2": "2 54377  64.7381 198.9389 0008614 204.9330 155.0953  2.13102051 23631"}}, "geometry": {"type": "Point", "coordinates": [41.951172653045404, -39.68610018974477]}}, {"type": "Feature", "properties": {"norad_id": 55268, "name": "GPS BIII-6  (PRN 28)", "group": "gnss", "lat": -2.545305650858993, "lon": -22.402899685608887, "alt_km": 20193.290673849944, "timestamp": "2025-12-13T05:42:57.800779+00:00", "meta": {"OBJECT_NAME": "GPS BIII-6  (PRN 28)", "OBJECT_ID": "2023-009A", "EPOCH": "2025-12-10T05:50:57.225696", "MEAN_MOTION": 2.00555847, "ECCENTRICITY": 0.00036975, "INCLINATION": 55.1051, "RA_OF_ASC_NODE": 155.9432, "ARG_OF_PERICENTER": 357.7706, "MEAN_ANOMALY": 183.2285, "EPHEMERIS_TYPE": 0, "CLASSIFICATION_TYPE": "U", "NORAD_CAT_ID": 55268, "ELEMENT_SET_NO": 999, "REV_AT_EPOCH": 2145, "BSTAR": 0, "MEAN_MOTION_DOT": 7.5e-07, "MEAN_MOTION_DDOT": 0}, "tle": {"line1": "1 55268U 23009A   25344.24371789  .00000075  00000+0  00000+0 0  9999", "line2": "2 55268  55.1051 155.9432 0003697 357.7706 183.2285  2.00555847 21451"}}, "geometry": {"type": "Point", "coordinates": [-22.402899685608887, -2.545305650858993]}}, {"type": "Feature", "properties": {"norad_id": 56564, "name": "BEIDOU-3 G4 (C62)", "group": "gnss", "lat": 0.3551578176523296, "lon": -32.017993133865204, "alt_km": 35797.00764989758, "timestamp": "2025-12-13T05:42:57.800791+00:00", "meta": {"OBJECT_NAME": "BEIDOU-3 G4 (C62)", "OBJECT_ID": "2023-066A", "EPOCH": "2025-12-12T06:35:38.842368", "MEAN_MOTION": 1.00271574, "ECCENTRICITY": 0.00029092, "INCLINATION": 0.8155, "RA_OF_ASC_NODE": 302.032, "ARG_OF_PERICENTER": 232.7169, "MEAN_ANOMALY": 165.4517, "EPHEMERIS_TYPE": 0, "CLASSIFICATION_TYPE": "U", "NORAD_CAT_ID": 56564, "ELEMENT_SET_NO": 999, "REV_AT_EPOCH": 952, "BSTAR": 0, "MEAN_MOTION_DOT": -1.01e-06, "MEAN_MOTION_DDOT": 0}, "tle": {"line1": "1 56564U 23066A   25346.27475512 -.00000101  00000+0  00000+0 0  9997", "line2": "2 56564   0.8155 302.0320 0002909 232.7169 165.4517  1.00271574  9529"}}, "geometry": {"type": "Point", "coordinates": [-32.017993133865204, 0.3551578176523296]}}, {"type": "Feature", "properties": {"norad_id": 56759, "name": "NVS-01 (IRNSS-1J)", "group": "gnss", "lat": 1.8659040224806467, "lon": -62.6224199487978, "alt_km": 35751.76285313161, "timestamp": "2025-12-13T05:42:57.800803+00:00", "meta": {"OBJECT_NAME": "NVS-01 (IRNSS-1J)", "OBJECT_ID": "2023-076A", "EPOCH": "2025-12-12T05:31:49.340352", "MEAN_MOTION": 1.00277796, "ECCENTRICITY": 0.00090213, "INCLINATION": 2.6191, "RA_OF_ASC_NODE": 251.612, "ARG_OF_PERICENTER": 14.2713, "MEAN_ANOMALY": 27.6821, "EPHEMERIS_TYPE": 0, "CLASSIFICATION_TYPE": "U", "NORAD_CAT_ID": 56759, "ELEMENT_SET_NO": 999, "REV_AT_EPOCH": 924, "BSTAR": 0, "MEAN_MOTION_DOT": -3.25e-06, "MEAN_MOTION_DDOT": 0}, "tle": {"line1": "1 56759U 23076A   25346.23043218 -.00000325  00000+0  00000+0 0  9992", "line2": "2 56759   2.6191 251.6120 0009021  14.2713  27.6821  1.00277796  9240"}}, "geometry": {"type": "Point", "coordinates": [-62.6224199487978, 1.8659040224806467]}}, {"type": "Feature", "properties": {"norad_id": 57517, "name": "COSMOS 2569 (703K)", "group": "gnss", "lat": -30.903049918025577, "lon": -85.0526498974276, "alt_km": 19125.892500552138, "timestamp": "2025-12-13T05:42:57.800814+00:00", "meta": {"OBJECT_NAME": "COSMOS 2569 (703K)", "OBJECT_ID": "2023-114A", "EPOCH": "2025-12-11T01:57:11.687328", "MEAN_MOTION": 2.13103934, "ECCENTRICITY": 0.0010485, "INCLINATION": 65.1933, "RA_OF_ASC_NODE": 78.9695, "ARG_OF_PERICENTER": 287.0346, "MEAN_ANOMALY": 72.8683, "EPHEMERIS_TYPE": 0, "CLASSIFICATION_TYPE": "U", "NORAD_CAT_ID": 57517, "ELEMENT_SET_NO": 999, "REV_AT_EPOCH": 1825, "BSTAR": 0, "MEAN_MOTION_DOT": -2.7e-07, "MEAN_MOTION_DDOT": 0}, "tle": {"line1": "1 57517U 23114A   25345.08138527 -.00000027  00000+0  00000+0 0  9997", "line2": "2 57517  65.1933  78.9695 0010485 287.0346  72.8683  2.13103934 18252"}}, "geometry": {"type": "Point", "coordinates": [-85.0526498974276, -30.903049918025577]}}, {"type": "Feature", "properties": {"norad_id": 58654, "name": "BEIDOU-3 M28 (C50)", "group": "gnss", "lat": 2.939476487231062, "lon": -113.42350334184506, "alt_km": 21528.42110316056, "timestamp": "2025-12-13T05:42:57.800826+00:00", "meta": {"OBJECT_NAME": "BEIDOU-3 M28 (C50)", "OBJECT_ID": "2023-207A", "EPOCH": "2025-12-11T21:37:33.991968", "MEAN_MOTION": 1.86229651, "ECCENTRICITY": 0.00023562, "INCLINATION": 55.5838, "RA_OF_ASC_NODE": 68.6297, "ARG_OF_PERICENTER": 269.3243, "MEAN_ANOMALY": 90.6691, "EPHEMERIS_TYPE": 0, "CLASSIFICATION_TYPE": "U", "NORAD_CAT_ID": 58654, "ELEMENT_SET_NO": 999, "REV_AT_EPOCH": 1335, "BSTAR": 0, "MEAN_MOTION_DOT": -6.9e-07, "MEAN_MOTION_DDOT": 0}, "tle": {"line1": "1 58654U 23207A   25345.90108787 -.00000069  00000+0  00000+0 0  9995", "line2": "2 58654  55.5838  68.6297 0002356 269.3243  90.6691  1.86229651 13350"}}, "geometry": {"type": "Point", "coordinates": [-113.42350334184506, 2.939476487231062]}}, {"type": "Feature", "properties": {"norad_id": 58655, "name": "BEIDOU-3 M26 (C48)", "group": "gnss", "lat": -37.74023126534732, "lon": 36.58109403071246, "alt_km": 21526.836376467665, "timestamp": "2025-12-13T05:42:57.800837+00:00", "meta": {"OBJECT_NAME": "BEIDOU-3 M26 (C48)", "OBJECT_ID": "2023-207B", "EPOCH": "2025-12-11T03:52:58.066752", "MEAN_MOTION": 1.86231203, "ECCENTRICITY": 0.000378, "INCLINATION": 55.5852, "RA_OF_ASC_NODE": 68.6411, "ARG_OF_PERICENTER": 255.3563, "MEAN_ANOMALY": 104.6232, "EPHEMERIS_TYPE": 0, "CLASSIFICATION_TYPE": "U", "NORAD_CAT_ID": 58655, "ELEMENT_SET_NO": 999, "REV_AT_EPOCH": 1332, "BSTAR": 0, "MEAN_MOTION_DOT": -6.3e-07, "MEAN_MOTION_DDOT": 0}, "tle": {"line1": "1 58655U 23207B   25345.16178318 -.00000063  00000+0  00000+0 0  9995", "line2": "2 58655  55.5852  68.6411 0003780 255.3563 104.6232  1.86231203 13327"}}, "geometry": {"type": "Point", "coordinates": [36.58109403071246, -37.74023126534732]}}]}